{"fetched_at":"2026-03-29T02:12:04Z","count":15717,"tles":[{"name":"RCM-1","line1":"1 44322U 19033A   26087.55354175 -.00000095  00000+0 -38390-5 0  9992","line2":"2 44322  97.7595  96.1388 0001418  90.3068 269.8314 14.92589039370052","category":"Other"}]}