{
  "norad_id": 44322,
  "name": "RCM-1",
  "history": [
    {
      "epoch": "2026-03-28T13:17:06.007200Z",
      "apogee_km": 590.8542822284226,
      "perigee_km": 588.8781565154086,
      "latitude_deg": 3.659305426107153e-05,
      "longitude_deg": 70.89143360447302,
      "height_km": 592.9120644744595,
      "semi_major_axis_km": 6968.003219371915,
      "eccentricity": 0.0001418,
      "inclination_deg": 97.7595,
      "raan_deg": 96.1388,
      "arg_perigee_deg": 90.3068,
      "mean_anomaly_deg": 269.8314,
      "mean_motion_rev_day": 14.92589039
    }
  ]
}